[{"OBJECT_NAME":"STARLINK-36257","OBJECT_ID":"2026-035AA","EPOCH":"2026-03-09T22:00:01.999584","MEAN_MOTION":15.86678257,"ECCENTRICITY":0.00014458,"INCLINATION":97.2673,"RA_OF_ASC_NODE":1.2955,"ARG_OF_PERICENTER":83.0592,"MEAN_ANOMALY":59.3433,"EPHEMERIS_TYPE":0,"CLASSIFICATION_TYPE":"U","NORAD_CAT_ID":67903,"ELEMENT_SET_NO":999,"REV_AT_EPOCH":384,"BSTAR":-0.0064848651,"MEAN_MOTION_DOT":-0.01427743,"MEAN_MOTION_DDOT":0},{"OBJECT_NAME":"COSMOS 2251 DEB","OBJECT_ID":"1993-036AKA","EPOCH":"2026-03-09T09:22:03.575424","MEAN_MOTION":15.68318455,"ECCENTRICITY":0.0015577,"INCLINATION":74.005,"RA_OF_ASC_NODE":188.7318,"ARG_OF_PERICENTER":331.7378,"MEAN_ANOMALY":28.2997,"EPHEMERIS_TYPE":0,"CLASSIFICATION_TYPE":"U","NORAD_CAT_ID":35432,"ELEMENT_SET_NO":999,"REV_AT_EPOCH":88835,"BSTAR":0.011294709,"MEAN_MOTION_DOT":0.01441733,"MEAN_MOTION_DDOT":0}]
